ONEWEB-0228             
1 48780U 21045P   23309.93445903  .00000200  00000+0  49806-3 0  9994
2 48780  87.8967  89.1595 0001421  90.7296 269.3997 13.15549599118862
